{
  "type": "FeatureCollection",
  "features": [
    {
      "type": "Feature",
      "properties": {
        "norad_id": 34765,
        "name": "IRIDIUM 33 DEB",
        "group": "iridium-33-debris",
        "lat": -18.76591506538945,
        "lon": 27.631752846798125,
        "alt_km": 773.1366722604289,
        "timestamp": "2025-12-21T18:54:58.880991+00:00",
        "meta_object_name": "IRIDIUM 33 DEB",
        "meta_object_id": "1997-051LJ",
        "meta_epoch": "2025-12-21T13:03:17.424288",
        "meta_mean_motion": 14.40485449,
        "meta_eccentricity": 0.0016466,
        "meta_inclination": 86.3382,
        "meta_ra_of_asc_node": 28.9833,
        "meta_arg_of_pericenter": 181.3076,
        "meta_mean_anomaly": 334.2319,
        "meta_ephemeris_type": 0,
        "meta_classification_type": "U",
        "meta_norad_cat_id": 34765,
        "meta_element_set_no": 999,
        "meta_rev_at_epoch": 87740,
        "meta_bstar": 0.00029938314,
        "meta_mean_motion_dot": 9.73e-06,
        "meta_mean_motion_ddot": 0,
        "tle_line1": "1 34765U 97051LJ  25355.54395167  .00000973  00000+0  29938-3 0  9999",
        "tle_line2": "2 34765  86.3382  28.9833 0016466 181.3076 334.2319 14.40485449877403"
      },
      "geometry": {
        "type": "Point",
        "coordinates": [
          27.631752846798125,
          -18.76591506538945
        ]
      }
    },
    {
      "type": "Feature",
      "properties": {
        "norad_id": 34833,
        "name": "IRIDIUM 33 DEB",
        "group": "iridium-33-debris",
        "lat": 64.83015527747408,
        "lon": -140.6203413063364,
        "alt_km": 700.5733134728425,
        "timestamp": "2025-12-21T18:54:58.881001+00:00",
        "meta_object_name": "IRIDIUM 33 DEB",
        "meta_object_id": "1997-051MH",
        "meta_epoch": "2025-12-21T03:45:30.832704",
        "meta_mean_motion": 14.52421073,
        "meta_eccentricity": 0.00214678,
        "meta_inclination": 86.3927,
        "meta_ra_of_asc_node": 47.3667,
        "meta_arg_of_pericenter": 72.8031,
        "meta_mean_anomaly": 341.7014,
        "meta_ephemeris_type": 0,
        "meta_classification_type": "U",
        "meta_norad_cat_id": 34833,
        "meta_element_set_no": 999,
        "meta_rev_at_epoch": 87837,
        "meta_bstar": 0.00044712979,
        "meta_mean_motion_dot": 1.848e-05,
        "meta_mean_motion_ddot": 0,
        "tle_line1": "1 34833U 97051MH  25355.15660686  .00001848  00000+0  44713-3 0  9993",
        "tle_line2": "2 34833  86.3927  47.3667 0021467  72.8031 341.7014 14.52421073878374"
      },
      "geometry": {
        "type": "Point",
        "coordinates": [
          -140.6203413063364,
          64.83015527747408
        ]
      }
    },
    {
      "type": "Feature",
      "properties": {
        "norad_id": 34870,
        "name": "IRIDIUM 33 DEB",
        "group": "iridium-33-debris",
        "lat": 28.739297889306002,
        "lon": 127.91142150011319,
        "alt_km": 626.9975174616366,
        "timestamp": "2025-12-21T18:54:58.881011+00:00",
        "meta_object_name": "IRIDIUM 33 DEB",
        "meta_object_id": "1997-051MQ",
        "meta_epoch": "2025-12-17T15:48:12.189024",
        "meta_mean_motion": 14.76525212,
        "meta_eccentricity": 0.00169592,
        "meta_inclination": 86.3102,
        "meta_ra_of_asc_node": 311.8309,
        "meta_arg_of_pericenter": 164.6796,
        "meta_mean_anomaly": 8.9227,
        "meta_ephemeris_type": 0,
        "meta_classification_type": "U",
        "meta_norad_cat_id": 34870,
        "meta_element_set_no": 999,
        "meta_rev_at_epoch": 88983,
        "meta_bstar": 0.0011120343,
        "meta_mean_motion_dot": 7.793e-05,
        "meta_mean_motion_ddot": 0,
        "tle_line1": "1 34870U 97051MQ  25351.65847441  .00007793  00000+0  11120-2 0  9991",
        "tle_line2": "2 34870  86.3102 311.8309 0016959 164.6796   8.9227 14.76525212889837"
      },
      "geometry": {
        "type": "Point",
        "coordinates": [
          127.91142150011319,
          28.739297889306002
        ]
      }
    },
    {
      "type": "Feature",
      "properties": {
        "norad_id": 34896,
        "name": "IRIDIUM 33 DEB",
        "group": "iridium-33-debris",
        "lat": 20.312097331280206,
        "lon": -36.01235606633575,
        "alt_km": 689.7856095659299,
        "timestamp": "2025-12-21T18:54:58.881021+00:00",
        "meta_object_name": "IRIDIUM 33 DEB",
        "meta_object_id": "1997-051MY",
        "meta_epoch": "2025-12-21T04:08:25.029888",
        "meta_mean_motion": 14.66349827,
        "meta_eccentricity": 0.00253228,
        "meta_inclination": 86.3294,
        "meta_ra_of_asc_node": 322.9021,
        "meta_arg_of_pericenter": 184.0734,
        "meta_mean_anomaly": 188.5608,
        "meta_ephemeris_type": 0,
        "meta_classification_type": "U",
        "meta_norad_cat_id": 34896,
        "meta_element_set_no": 999,
        "meta_rev_at_epoch": 87743,
        "meta_bstar": 0.00055992962,
        "meta_mean_motion_dot": 3.128e-05,
        "meta_mean_motion_ddot": 0,
        "tle_line1": "1 34896U 97051MY  25355.17251192  .00003128  00000+0  55993-3 0  9997",
        "tle_line2": "2 34896  86.3294 322.9021 0025322 184.0734 188.5608 14.66349827877439"
      },
      "geometry": {
        "type": "Point",
        "coordinates": [
          -36.01235606633575,
          20.312097331280206
        ]
      }
    },
    {
      "type": "Feature",
      "properties": {
        "norad_id": 34926,
        "name": "IRIDIUM 33 DEB",
        "group": "iridium-33-debris",
        "lat": 84.76086316233128,
        "lon": 51.63238974176577,
        "alt_km": 755.2898643064327,
        "timestamp": "2025-12-21T18:54:58.881031+00:00",
        "meta_object_name": "IRIDIUM 33 DEB",
        "meta_object_id": "1997-051NF",
        "meta_epoch": "2025-12-20T01:29:58.203744",
        "meta_mean_motion": 14.54723166,
        "meta_eccentricity": 0.00745564,
        "meta_inclination": 86.1315,
        "meta_ra_of_asc_node": 4.8773,
        "meta_arg_of_pericenter": 267.4346,
        "meta_mean_anomaly": 147.2463,
        "meta_ephemeris_type": 0,
        "meta_classification_type": "U",
        "meta_norad_cat_id": 34926,
        "meta_element_set_no": 999,
        "meta_rev_at_epoch": 86563,
        "meta_bstar": 0.0033633995,
        "meta_mean_motion_dot": 0.00014979,
        "meta_mean_motion_ddot": 0,
        "tle_line1": "1 34926U 97051NF  25354.06247921  .00014979  00000+0  33634-2 0  9996",
        "tle_line2": "2 34926  86.1315   4.8773 0074556 267.4346 147.2463 14.54723166865632"
      },
      "geometry": {
        "type": "Point",
        "coordinates": [
          51.63238974176577,
          84.76086316233128
        ]
      }
    },
    {
      "type": "Feature",
      "properties": {
        "norad_id": 34985,
        "name": "IRIDIUM 33 DEB",
        "group": "iridium-33-debris",
        "lat": 17.985615182058027,
        "lon": -128.16128369102708,
        "alt_km": 738.5171423991569,
        "timestamp": "2025-12-21T18:54:58.881041+00:00",
        "meta_object_name": "IRIDIUM 33 DEB",
        "meta_object_id": "1997-051NR",
        "meta_epoch": "2025-12-21T03:18:55.645056",
        "meta_mean_motion": 14.42041434,
        "meta_eccentricity": 0.00216435,
        "meta_inclination": 86.369,
        "meta_ra_of_asc_node": 53.2972,
        "meta_arg_of_pericenter": 191.5239,
        "meta_mean_anomaly": 198.031,
        "meta_ephemeris_type": 0,
        "meta_classification_type": "U",
        "meta_norad_cat_id": 34985,
        "meta_element_set_no": 999,
        "meta_rev_at_epoch": 87296,
        "meta_bstar": 0.00042163262,
        "meta_mean_motion_dot": 1.407e-05,
        "meta_mean_motion_ddot": 0,
        "tle_line1": "1 34985U 97051NR  25355.13814404  .00001407  00000+0  42163-3 0  9996",
        "tle_line2": "2 34985  86.3690  53.2972 0021643 191.5239 198.0310 14.42041434872968"
      },
      "geometry": {
        "type": "Point",
        "coordinates": [
          -128.16128369102708,
          17.985615182058027
        ]
      }
    },
    {
      "type": "Feature",
      "properties": {
        "norad_id": 35051,
        "name": "IRIDIUM 33 DEB",
        "group": "iridium-33-debris",
        "lat": -82.58856814815836,
        "lon": -24.70188349045017,
        "alt_km": 747.1749831541756,
        "timestamp": "2025-12-21T18:54:58.881051+00:00",
        "meta_object_name": "IRIDIUM 33 DEB",
        "meta_object_id": "1997-051NX",
        "meta_epoch": "2025-12-19T07:34:48.667584",
        "meta_mean_motion": 14.47625509,
        "meta_eccentricity": 0.0010483,
        "meta_inclination": 86.3238,
        "meta_ra_of_asc_node": 5.9957,
        "meta_arg_of_pericenter": 72.9006,
        "meta_mean_anomaly": 287.3345,
        "meta_ephemeris_type": 0,
        "meta_classification_type": "U",
        "meta_norad_cat_id": 35051,
        "meta_element_set_no": 999,
        "meta_rev_at_epoch": 87091,
        "meta_bstar": 0.00045048,
        "meta_mean_motion_dot": 1.68e-05,
        "meta_mean_motion_ddot": 0,
        "tle_line1": "1 35051U 97051NX  25353.31584106  .00001680  00000+0  45048-3 0  9990",
        "tle_line2": "2 35051  86.3238   5.9957 0010483  72.9006 287.3345 14.47625509870911"
      },
      "geometry": {
        "type": "Point",
        "coordinates": [
          -24.70188349045017,
          -82.58856814815836
        ]
      }
    }
  ]
}